OBJECT_NAME,OBJECT_ID,EPOCH,MEAN_MOTION,ECCENTRICITY,INCLINATION,RA_OF_ASC_NODE,ARG_OF_PERICENTER,MEAN_ANOMALY,EPHEMERIS_TYPE,CLASSIFICATION_TYPE,NORAD_CAT_ID,ELEMENT_SET_NO,REV_AT_EPOCH,BSTAR,MEAN_MOTION_DOT,MEAN_MOTION_DDOT
ONEWEB-0158,2021-025N,2026-07-09T07:06:13.820256,13.13463100,.00018721,87.8981,315.8194,104.2676,255.8661,0,U,48054,999,25653,-.30557545E-2,-.1103E-4,0
ONEWEB-0157,2021-025P,2026-07-10T07:28:50.484288,13.13471816,.00023378,87.8973,315.6220,99.8130,260.3263,0,U,48055,999,25660,-.18456993E-3,-.55E-6,0
ONEWEB-0162,2021-025Q,2026-07-10T06:54:31.338144,13.13469043,.00019027,87.8978,315.6266,94.6222,265.5124,0,U,48056,999,25657,-.60976916E-3,-.21E-5,0
ONEWEB-0155,2021-025R,2026-07-10T18:02:39.967008,13.13473459,.0002023,87.8976,315.5317,95.9647,264.1712,0,U,48057,999,25677,-.78982E-3,-.276E-5,0
ONEWEB-0149,2021-025S,2026-07-10T07:36:09.686592,13.13470301,.00018593,87.8986,315.6210,91.2154,268.9188,0,U,48058,999,25652,.99813053E-4,.49E-6,0
ONEWEB-0148,2021-025T,2026-07-10T08:32:13.311168,13.13468876,.00020809,87.8976,315.6187,82.0668,278.0698,0,U,48059,999,25665,-.8183298E-5,.1E-6,0
ONEWEB-0160,2021-025U,2026-07-10T18:05:03.918048,13.13469515,.000122,87.8969,315.5365,111.1007,249.0252,0,U,48060,999,25665,-.83852E-3,-.293E-5,0
ONEWEB-0163,2021-025V,2026-07-11T02:51:37.044000,13.13468362,.0002152,87.8977,315.4609,99.2317,260.9055,0,U,48061,999,25682,.14663E-3,.66E-6,0
ONEWEB-0159,2021-025W,2026-07-09T06:46:43.756032,13.13469135,.00021525,87.8985,315.8184,99.5838,260.5535,0,U,48062,999,25650,.5442308E-5,.15E-6,0
ONEWEB-0164,2021-025X,2026-07-10T07:55:39.442368,13.13469361,.00018916,87.8982,315.6166,101.6260,258.5081,0,U,48063,999,25662,.79936168E-3,.305E-5,0
ONEWEB-0167,2021-025Y,2026-07-10T06:46:11.490816,13.13469205,.00024454,87.8974,315.6336,112.0386,248.1003,0,U,48064,999,25660,-.32768541E-3,-.107E-5,0
ONEWEB-0166,2021-025Z,2026-07-10T07:19:05.494944,13.13470319,.00019838,87.8991,315.6036,98.2219,261.9135,0,U,48065,999,25668,-.80812633E-3,-.282E-5,0
ONEWEB-0151,2021-025AA,2026-07-10T07:21:31.033152,13.13470271,.00019345,87.8968,315.6178,104.1051,256.0293,0,U,48066,999,25662,-.50924624E-3,-.173E-5,0
ONEWEB-0170,2021-025AB,2026-07-10T07:33:42.255360,13.13469697,.00017067,87.8974,315.6185,116.8089,243.3215,0,U,48067,999,25658,.2824913E-4,.23E-6,0
ONEWEB-0168,2021-025AC,2026-07-10T18:09:56.543616,13.13469189,.0001999,87.8979,315.5318,100.2692,259.8663,0,U,48068,999,25665,-.82801E-3,-.29E-5,0
ONEWEB-0173,2021-025AD,2026-07-09T07:13:32.279520,13.13469668,.0002284,87.8976,315.8212,103.0214,257.1171,0,U,48069,999,25670,-.78266175E-3,-.273E-5,0
ONEWEB-0171,2021-025AE,2026-07-10T07:53:13.030656,13.13469640,.00019186,87.8973,315.6242,102.2920,257.8424,0,U,48070,999,25665,.66758692E-3,.257E-5,0
ONEWEB-0172,2021-025AF,2026-07-10T07:23:57.576192,13.13470878,.0002057,87.8984,315.6199,103.2327,256.9032,0,U,48071,999,25754,-.47671406E-3,-.161E-5,0
ONEWEB-0174,2021-025AG,2026-07-09T07:11:06.256608,13.13469181,.0001978,87.8982,315.8191,95.7535,264.3820,0,U,48072,999,25673,-.77099001E-3,-.269E-5,0
ONEWEB-0175,2021-025AH,2026-07-10T07:41:01.681440,13.13470035,.00020141,87.8977,315.6021,111.4979,248.6365,0,U,48073,999,25652,.32051985E-3,.13E-5,0
ONEWEB-0177,2021-025AJ,2026-07-10T07:58:05.849760,13.13469057,.00020316,87.8990,315.6177,99.8531,260.2828,0,U,48074,999,25671,.17373686E-2,.647E-5,0
ONEWEB-0178,2021-025AK,2026-07-10T06:35:25.072800,13.13469862,.00021141,87.8975,315.6381,103.9670,256.1694,0,U,48075,999,25675,.2957682E-3,.121E-5,0
ONEWEB-0108,2021-025AL,2026-07-10T07:26:23.980128,13.13469812,.00017399,87.8983,315.6137,95.6101,264.5227,0,U,48076,999,25668,-.29334528E-3,-.94E-6,0
ONEWEB-0169,2021-025AM,2026-07-09T06:36:58.801248,13.13469031,.0002025,87.8988,315.8237,94.6036,265.5324,0,U,48077,999,25520,.4444269E-3,.175E-5,0
ONEWEB-0176,2021-031A,2026-07-11T05:34:23.060640,13.14502235,.0002143,87.8967,284.9086,101.4158,258.7213,0,U,48210,999,25147,.13212E-3,.62E-6,0
ONEWEB-0184,2021-031B,2026-07-11T04:55:33.771072,13.14502371,.0002522,87.8978,284.9157,116.4342,243.7046,0,U,48211,999,25144,-.54454E-3,-.189E-5,0
ONEWEB-0179,2021-031C,2026-07-10T04:32:20.006016,14.25563332,.02208429,87.8995,281.4390,181.7306,178.3150,0,U,48212,999,25232,.48502786E-3,.1501E-4,0
ONEWEB-0180,2021-031D,2026-07-11T05:00:08.205120,13.14502558,.0002496,87.8978,284.9118,100.0559,260.0853,0,U,48213,999,25137,-.69828E-3,-.246E-5,0
ONEWEB-0218,2021-031E,2026-07-11T05:32:06.114912,13.14503487,.0002737,87.8976,284.9076,114.1228,246.0188,0,U,48214,999,25153,.25711E-3,.108E-5,0
ONEWEB-0209,2021-031F,2026-07-11T05:16:07.576032,13.14503468,.0002278,87.8966,284.9238,96.7031,263.4358,0,U,48215,999,25153,-.38656E-3,-.131E-5,0
